{
  "norad_id": 63365,
  "name": "STARLINK-33741",
  "history": [
    {
      "epoch": "2026-03-28T22:32:20.266944Z",
      "apogee_km": 475.9581333057349,
      "perigee_km": 474.3718680246602,
      "latitude_deg": -4.8068037924209835e-05,
      "longitude_deg": 158.8309403220598,
      "height_km": 475.9818422872051,
      "semi_major_axis_km": 6853.302000665197,
      "eccentricity": 0.00011573,
      "inclination_deg": 53.1577,
      "raan_deg": 323.2678,
      "arg_perigee_deg": 84.1265,
      "mean_anomaly_deg": 275.9867,
      "mean_motion_rev_day": 15.30216769
    },
    {
      "epoch": "2026-03-29T01:40:26.430240Z",
      "apogee_km": 475.9438571495566,
      "perigee_km": 474.3607473207403,
      "latitude_deg": 1.4627184186711009e-05,
      "longitude_deg": 111.06735491014146,
      "height_km": 475.7933839386432,
      "semi_major_axis_km": 6853.289302235148,
      "eccentricity": 0.0001155,
      "inclination_deg": 53.1581,
      "raan_deg": 322.6586,
      "arg_perigee_deg": 71.0508,
      "mean_anomaly_deg": 289.0618,
      "mean_motion_rev_day": 15.30221022
    },
    {
      "epoch": "2026-03-29T22:03:06.944832Z",
      "apogee_km": 475.96532665862014,
      "perigee_km": 474.43429121550435,
      "latitude_deg": 2.8701935548732873e-05,
      "longitude_deg": 160.6200635623152,
      "height_km": 476.23557758380366,
      "semi_major_axis_km": 6853.336808937062,
      "eccentricity": 0.0001117,
      "inclination_deg": 53.158,
      "raan_deg": 318.717,
      "arg_perigee_deg": 100.3612,
      "mean_anomaly_deg": 259.7515,
      "mean_motion_rev_day": 15.30205111
    },
    {
      "epoch": "2026-03-29T22:03:06.945696Z",
      "apogee_km": 475.96505252514817,
      "perigee_km": 474.43456534897723,
      "latitude_deg": 3.2330012720575804e-05,
      "longitude_deg": 160.62006265572674,
      "height_km": 476.23552828152333,
      "semi_major_axis_km": 6853.336808937062,
      "eccentricity": 0.00011166,
      "inclination_deg": 53.158,
      "raan_deg": 318.717,
      "arg_perigee_deg": 100.3612,
      "mean_anomaly_deg": 259.7515,
      "mean_motion_rev_day": 15.30205111
    }
  ]
}